satname,norad_id,inclination_deg,eccentricity,mean_motion_rev_per_day,perigee_km,apogee_km,l1,l2
STARLINK-1478,45755,53.0556,0.0001631,15.06388574,546.1170471425394,548.3761072654233,1 45755U 20038AB  25328.70450414 -.00006940  00000+0 -44761-3 0  9999,2 45755  53.0556 327.9123 0001631  97.0963 263.0211 15.06388574300649
STARLINK-1484,45756,53.0136,0.0003614,15.66051618,367.77715919757156,372.6548687560735,1 45756U 20038AC  25328.42794909  .00091521  00000+0  87243-3 0  9998,2 45756  53.0136 224.9903 0003614 105.1714 254.9701 15.66051618302067
STARLINK-1493,45759,53.0554,0.0001118,15.06392259,546.4610264687171,548.0095397112154,1 45759U 20038AF  25328.42807387  .00002787  00000+0  20596-3 0  9990,2 45759  53.0554 329.1537 0001118  98.9610 261.1506 15.06392259300600
STARLINK-1494,45760,53.0547,0.0005119,15.53543964,402.91545311900154,409.86145027645034,1 45760U 20038AG  25328.22715450  .00040026  00000+0  62239-3 0  9997,2 45760  53.0547 307.4121 0005119  73.0800 287.0770 15.53543964300908
STARLINK-1502,45764,53.0557,0.0001588,15.06397043,546.1208739420435,548.3203675223876,1 45764U 20038AL  25328.72663271 -.00000171  00000+0  74122-5 0  9993,2 45764  53.0557 327.8160 0001588  85.0360 275.0811 15.06397043300661
STARLINK-1470,45772,53.0477,0.0005379,15.19556087,503.47762872183284,510.88485408593624,1 45772U 20038AU  25328.32267139  .00052662  00000+0  24425-2 0  9990,2 45772  53.0477 300.0598 0005379  10.4620 349.6486 15.19556087301017
STARLINK-1482,45773,53.0554,0.0001537,15.06404732,546.1326312335095,548.2614789220406,1 45773U 20038AV  25328.35988345  .00001864  00000+0  14397-3 0  9999,2 45773  53.0554 309.4600 0001537  83.3624 276.7540 15.06404732300886
STARLINK-1496,45780,53.056,0.0001568,15.06380843,546.1843681461405,548.3561758666419,1 45780U 20038BC  25328.65844163  .00003191  00000+0  23314-3 0  9993,2 45780  53.0560 308.1212 0001568  95.0815 265.0353 15.06380843300915
STARLINK-1497,45781,53.0369,0.0006881,15.61609381,378.3554260050023,387.66011343709306,1 45781U 20038BD  25328.91670139  .00140237  00000+0  15783-2 0  9996,2 45781  53.0369 243.3848 0006881  61.5523 147.0719 15.61609381  5981
STARLINK-1510,45784,53.0264,0.0004581,15.81106645,324.2382017656355,330.3817322768191,1 45784U 20038BG  25328.91670139  .00079754  00000+0  39930-3 0  9995,2 45784  53.0264 216.4285 0004581 137.7272  49.1075 15.81106645  6026
STARLINK-1513,45786,53.0559,0.0001397,15.06397674,546.2512146129993,548.1861589918926,1 45786U 20038BJ  25328.68793381  .00000549  00000+0  55771-4 0  9994,2 45786  53.0559 307.9885 0001397  94.5970 265.5178 15.06397674300930
STARLINK-1522,46027,53.0527,0.000144,15.06394967,546.2297309877313,548.2242358149506,1 46027U 20055A   25328.46955698  .00009302  00000+0  64260-3 0  9997,2 46027  53.0527 238.9668 0001440  81.1070 279.0082 15.06394967293025
STARLINK-1523,46028,53.0544,0.0001719,15.06388865,546.0552120361554,548.4361586033683,1 46028U 20055B   25328.48429604  .00004566  00000+0  32536-3 0  9991,2 46028  53.0544 238.9045 0001719 109.1769 250.9406 15.06388865293049
STARLINK-1526,46029,53.0535,0.0001625,15.06391841,546.1111910068494,548.3619374152186,1 46029U 20055C   25328.47692315  .00005855  00000+0  41169-3 0  9996,2 46029  53.0535 238.9351 0001625  99.3193 260.7980 15.06391841293030
STARLINK-1555,46032,53.053,0.0001716,15.06394888,546.0388330252208,548.4156180274222,1 46032U 20055F   25328.46217492  .00003966  00000+0  28504-3 0  9997,2 46032  53.0530 238.9989 0001716  83.7943 276.3241 15.06394888293034
STARLINK-1556,46033,53.0532,0.0001233,15.06392583,546.3803917882387,548.0881883483698,1 46033U 20055G   25328.17836399  .00012774  00000+0  87505-3 0  9992,2 46033  53.0532 240.2771 0001233 100.2692 259.8436 15.06392583292965
STARLINK-1557,46034,53.0541,0.0001357,15.06390711,546.3002538690753,548.1798011943474,1 46034U 20055H   25328.44742603 -.00002680  00000+0 -16110-3 0  9998,2 46034  53.0541 239.0683 0001357 104.7232 255.3907 15.06390711293001
STARLINK-1558,46035,53.0544,0.0001525,15.06392678,546.1778798272808,548.2901179819473,1 46035U 20055J   25328.45480267  .00003062  00000+0  22441-3 0  9992,2 46035  53.0544 239.0376 0001525 101.8121 258.3039 15.06392678293032
STARLINK-1560,46036,53.0544,0.0001759,15.06394374,546.0106290272761,548.4469727160222,1 46036U 20055K   25328.04198546  .00010792  00000+0  74238-3 0  9993,2 46036  53.0544 240.8906 0001759  81.7036 278.4152 15.06394374292978
STARLINK-1567,46038,53.054,0.0001498,15.06395514,546.187887642719,548.2627261898715,1 46038U 20055M   25328.45112336  .00009425  00000+0  65085-3 0  9994,2 46038  53.0540 239.0530 0001498  98.2956 261.8203 15.06395514293020
STARLINK-1569,46039,53.0532,0.000171,15.06394555,546.0440086722319,548.4124835864086,1 46039U 20055N   25328.45849487  .00002220  00000+0  16794-3 0  9998,2 46039  53.0532 239.0208 0001710  97.4670 262.6513 15.06394555293022
STARLINK-1582,46043,53.0532,0.0001424,15.06405134,546.2096556184015,548.1819904063959,1 46043U 20055S   25328.46586162  .00006406  00000+0  44853-3 0  9999,2 46043  53.0532 238.9849 0001424  94.5062 265.6090 15.06405134293020
STARLINK-1591,46045,53.0537,0.000154,15.06396317,546.1563404095696,548.2893512420842,1 46045U 20055U   25328.49167223  .00009135  00000+0  63144-3 0  9993,2 46045  53.0537 238.8702 0001540  76.7303 283.3857 15.06396317293012
STARLINK-1524,46047,53.0532,0.0001761,15.06348452,546.1499679359304,548.5891313427137,1 46047U 20055W   25328.11293799  .00003878  00000+0  27950-3 0  9995,2 46047  53.0532 230.5724 0001761 109.3604 250.7576 15.06348452293118
STARLINK-1527,46048,53.0535,0.0001494,15.06397846,546.1835115850618,548.2528077067627,1 46048U 20055X   25328.44098009  .00007547  00000+0  52502-3 0  9997,2 46048  53.0535 229.0994 0001494 101.9377 258.1779 15.06397846293143
STARLINK-1540,46051,53.0551,0.0001741,15.0639293,546.0275195983168,548.4389335112019,1 46051U 20055AA  25328.14241782  .00003810  00000+0  27458-3 0  9997,2 46051  53.0551 230.4353 0001741  92.1989 267.9199 15.06392930293137
STARLINK-1541,46052,53.055,0.000194,15.06388062,545.904621712114,548.5916711489299,1 46052U 20055AB  25328.45941522  .00004276  00000+0  30588-3 0  9996,2 46052  53.0550 229.0088 0001940  97.0561 263.0648 15.06388062293145
STARLINK-1543,46053,53.0523,0.0001497,15.06396129,546.1866955659807,548.2601484763336,1 46053U 20055AC  25328.46310248  .00007812  00000+0  54279-3 0  9995,2 46053  53.0523 228.9994 0001497  68.9758 291.1391 15.06396129293175
